OBJECT_NAME,OBJECT_ID,EPOCH,MEAN_MOTION,ECCENTRICITY,INCLINATION,RA_OF_ASC_NODE,ARG_OF_PERICENTER,MEAN_ANOMALY,EPHEMERIS_TYPE,CLASSIFICATION_TYPE,NORAD_CAT_ID,ELEMENT_SET_NO,REV_AT_EPOCH,BSTAR,MEAN_MOTION_DOT,MEAN_MOTION_DDOT
STARLINK-36533,2026-020AC,2026-05-30T02:01:10.907328,15.27598272,.0001414,43.0046,39.9528,272.6941,87.3749,0,U,67643,999,1856,.80751E-3,.22038E-3,0
STARLINK-36623,2026-020AD,2026-05-30T01:46:22.247904,15.27595120,.0001407,43.0079,39.8640,269.9791,90.0900,0,U,67644,999,1856,.8562E-3,.23384E-3,0
STARLINK-36619,2026-020AE,2026-05-30T01:44:31.039008,15.27606070,.000218,43.0059,39.8512,243.9095,116.1533,0,U,67645,999,1856,.12457E-2,.34203E-3,0
ALSAT-3B,2026-021A,2026-05-29T18:22:22.594656,15.23182287,.00142808,97.4595,223.6449,225.1970,134.8107,0,U,67646,999,1806,.33533109E-3,.7879E-4,0
STARLINK-36719,2026-022A,2026-05-30T00:43:43.987008,15.33462570,.0002525,97.2815,183.1443,93.1601,266.9931,0,U,67648,999,1803,.8522E-3,.27555E-3,0
STARLINK-36342,2026-022B,2026-05-30T00:41:56.769792,15.33462777,.0002261,97.2825,184.2121,94.9597,265.1904,0,U,67649,999,1810,.94622E-3,.30615E-3,0
STARLINK-36703,2026-022C,2026-05-30T01:30:43.127424,15.33448433,.0000985,97.2831,183.2535,84.3081,275.8274,0,U,67650,999,1804,.92334E-3,.29855E-3,0
STARLINK-36696,2026-022D,2026-05-30T01:54:12.783168,15.33439842,.0000992,97.2842,183.2312,87.6584,272.4772,0,U,67651,999,1804,.66506E-3,.21453E-3,0
STARLINK-36699,2026-022E,2026-05-30T01:07:13.501056,15.33456082,.0000944,97.2832,183.2745,121.4680,238.6655,0,U,67652,999,1804,.87822E-3,.28394E-3,0
STARLINK-36694,2026-022F,2026-05-30T00:31:59.656800,15.33468258,.0002748,97.2830,183.1591,81.0150,279.1403,0,U,67653,999,1803,.96839E-3,.31344E-3,0
STARLINK-36620,2026-022G,2026-05-30T01:42:27.866304,15.33442646,.0000956,97.2835,183.2412,70.7150,289.4196,0,U,67654,999,1804,.95242E-3,.30796E-3,0
STARLINK-36720,2026-022H,2026-05-30T01:18:58.264128,15.33445966,.00006,97.2830,183.2660,69.4345,290.6962,0,U,67655,999,1804,.95743E-3,.30962E-3,0
STARLINK-36688,2026-022J,2026-05-30T00:55:28.792416,15.33463694,.0002452,97.2810,183.2860,96.1220,264.0302,0,U,67656,999,1804,.84205E-3,.27225E-3,0
STARLINK-36706,2026-022K,2026-05-30T00:24:09.543168,15.33455598,.0001731,97.2832,183.1635,81.5537,278.5902,0,U,67657,999,1803,.94707E-3,.30635E-3,0
STARLINK-36701,2026-022L,2026-05-30T01:46:22.908864,15.33466179,.0001925,97.2840,183.2382,74.6242,285.5213,0,U,67658,999,1804,.11991E-2,.38863E-3,0
STARLINK-36642,2026-022M,2026-05-30T01:34:38.011008,15.33450246,.0001117,97.2841,183.2520,108.5813,251.5551,0,U,67659,999,1804,.98654E-3,.31914E-3,0
STARLINK-36673,2026-022N,2026-05-30T01:22:52.879008,15.33464429,.0001187,97.2836,183.2612,154.7374,205.3927,0,U,67660,999,1804,.62184E-3,.20066E-3,0
STARLINK-36674,2026-022P,2026-05-30T01:11:08.490912,15.33458379,.000119,97.2844,183.2722,67.3816,292.7553,0,U,67661,999,1804,.11311E-2,.36635E-3,0
STARLINK-36700,2026-022Q,2026-05-30T00:47:39.249024,15.33474148,.0003502,97.2829,183.2961,55.6698,304.4876,0,U,67662,999,1804,.13792E-2,.44762E-3,0
STARLINK-36675,2026-022R,2026-05-30T00:59:24.310176,15.33491249,.0001705,97.2835,183.2836,80.9958,279.1478,0,U,67663,999,1804,.90773E-3,.29387E-3,0
STARLINK-36404,2026-022S,2026-05-30T00:39:49.144032,15.33456002,.0002456,97.2833,183.1474,98.3078,261.8443,0,U,67664,999,1803,.82641E-3,.2671E-3,0
STARLINK-36399,2026-022T,2026-05-30T00:35:54.271680,15.33458989,.0002017,97.2835,183.1533,88.5853,271.5621,0,U,67665,999,1803,.85512E-3,.27646E-3,0
STARLINK-36365,2026-022U,2026-05-30T02:02:02.500224,15.33450502,.0003025,97.2818,183.2258,75.6259,284.5320,0,U,67666,999,1804,.95922E-3,.31028E-3,0
STARLINK-36622,2026-022V,2026-05-30T01:50:17.592864,15.33444502,.0000997,97.2834,183.2365,77.4914,282.6440,0,U,67667,999,1804,.85135E-3,.27509E-3,0
STARLINK-36625,2026-022W,2026-05-29T16:14:44.968704,15.33442458,.00007327,97.2840,182.8605,117.6043,242.5274,0,U,67668,999,1798,.49964626E-3,.16088E-3,0
STARLINK-36639,2026-022X,2026-05-30T01:26:48.390720,15.33481966,.0000735,97.2831,183.2612,111.0399,249.0922,0,U,67669,999,1804,.7062E-3,.22819E-3,0
STARLINK-36596,2026-022Y,2026-05-30T01:15:03.290688,15.33452175,.0001736,97.2834,183.2686,91.3489,268.7953,0,U,67670,999,1804,.50236E-3,.16182E-3,0
STARLINK-36297,2026-022Z,2026-05-30T00:51:33.902784,15.33460018,.0002212,97.2817,183.2907,94.4921,265.6574,0,U,67671,999,1804,.83055E-3,.26848E-3,0
STARLINK-36616,2026-022AA,2026-05-30T01:03:20.626272,15.33451330,.0001413,97.2841,183.2813,97.3823,262.7581,0,U,67672,999,1804,.82737E-3,.26736E-3,0
COSMOS 2600,2026-023A,2026-05-29T22:56:59.764128,15.82957433,.00098902,96.6647,222.9552,174.5897,185.5483,0,U,67674,999,1790,.27341134E-3,.58255E-3,0
