STARLINK-36533          
1 67643U 26020AC  26150.08415402  .00022038  00000+0  80751-3 0  9992
2 67643  43.0046  39.9528 0001414 272.6941  87.3749 15.27598272 18568
STARLINK-36623          
1 67644U 26020AD  26150.07386861  .00023384  00000+0  85620-3 0  9993
2 67644  43.0079  39.8640 0001407 269.9791  90.0900 15.27595120 18562
STARLINK-36619          
1 67645U 26020AE  26150.07258147  .00034203  00000+0  12457-2 0  9998
2 67645  43.0059  39.8512 0002180 243.9095 116.1533 15.27606070 18566
ALSAT-3B                
1 67646U 26021A   26149.76553929  .00007879  00000+0  33533-3 0  9998
2 67646  97.4595 223.6449 0014280 225.1970 134.8107 15.23182287 18069
STARLINK-36719          
1 67648U 26022A   26150.03037022  .00027555  00000+0  85220-3 0  9997
2 67648  97.2815 183.1443 0002525  93.1601 266.9931 15.33462570 18037
STARLINK-36342          
1 67649U 26022B   26150.02912928  .00030615  00000+0  94622-3 0  9991
2 67649  97.2825 184.2121 0002261  94.9597 265.1904 15.33462777 18102
STARLINK-36703          
1 67650U 26022C   26150.06299916  .00029855  00000+0  92334-3 0  9994
2 67650  97.2831 183.2535 0000985  84.3081 275.8274 15.33448433 18045
STARLINK-36696          
1 67651U 26022D   26150.07931462  .00021453  00000+0  66506-3 0  9993
2 67651  97.2842 183.2312 0000992  87.6584 272.4772 15.33439842 18043
STARLINK-36699          
1 67652U 26022E   26150.04668404  .00028394  00000+0  87822-3 0  9999
2 67652  97.2832 183.2745 0000944 121.4680 238.6655 15.33456082 18043
STARLINK-36694          
1 67653U 26022F   26150.02221825  .00031344  00000+0  96839-3 0  9997
2 67653  97.2830 183.1591 0002748  81.0150 279.1403 15.33468258 18035
STARLINK-36620          
1 67654U 26022G   26150.07115586  .00030796  00000+0  95242-3 0  9996
2 67654  97.2835 183.2412 0000956  70.7150 289.4196 15.33442646 18045
STARLINK-36720          
1 67655U 26022H   26150.05484102  .00030962  00000+0  95743-3 0  9999
2 67655  97.2830 183.2660 0000600  69.4345 290.6962 15.33445966 18046
STARLINK-36688          
1 67656U 26022J   26150.03852769  .00027225  00000+0  84205-3 0  9995
2 67656  97.2810 183.2860 0002452  96.1220 264.0302 15.33463694 18044
STARLINK-36706          
1 67657U 26022K   26150.01677712  .00030635  00000+0  94707-3 0  9994
2 67657  97.2832 183.1635 0001731  81.5537 278.5902 15.33455598 18035
STARLINK-36701          
1 67658U 26022L   26150.07387626  .00038863  00000+0  11991-2 0  9997
2 67658  97.2840 183.2382 0001925  74.6242 285.5213 15.33466179 18047
STARLINK-36642          
1 67659U 26022M   26150.06571772  .00031914  00000+0  98654-3 0  9996
2 67659  97.2841 183.2520 0001117 108.5813 251.5551 15.33450246 18043
STARLINK-36673          
1 67660U 26022N   26150.05755647  .00020066  00000+0  62184-3 0  9997
2 67660  97.2836 183.2612 0001187 154.7374 205.3927 15.33464429 18045
STARLINK-36674          
1 67661U 26022P   26150.04940383  .00036635  00000+0  11311-2 0  9994
2 67661  97.2844 183.2722 0001190  67.3816 292.7553 15.33458379 18043
STARLINK-36700          
1 67662U 26022Q   26150.03309316  .00044762  00000+0  13792-2 0  9994
2 67662  97.2829 183.2961 0003502  55.6698 304.4876 15.33474148 18040
STARLINK-36675          
1 67663U 26022R   26150.04125359  .00029387  00000+0  90773-3 0  9990
2 67663  97.2835 183.2836 0001705  80.9958 279.1478 15.33491249 18049
STARLINK-36404          
1 67664U 26022S   26150.02765213  .00026710  00000+0  82641-3 0  9990
2 67664  97.2833 183.1474 0002456  98.3078 261.8443 15.33456002 18032
STARLINK-36399          
1 67665U 26022T   26150.02493370  .00027646  00000+0  85512-3 0  9992
2 67665  97.2835 183.1533 0002017  88.5853 271.5621 15.33458989 18038
STARLINK-36365          
1 67666U 26022U   26150.08475116  .00031028  00000+0  95922-3 0  9992
2 67666  97.2818 183.2258 0003025  75.6259 284.5320 15.33450502 18046
STARLINK-36622          
1 67667U 26022V   26150.07659251  .00027509  00000+0  85135-3 0  9990
2 67667  97.2834 183.2365 0000997  77.4914 282.6440 15.33444502 18042
STARLINK-36625          
1 67668U 26022W   26149.67690936  .00016088  00000+0  49965-3 0  9991
2 67668  97.2840 182.8605 0000732 117.6043 242.5274 15.33442458 17989
STARLINK-36639          
1 67669U 26022X   26150.06028230  .00022819  00000+0  70620-3 0  9990
2 67669  97.2831 183.2612 0000735 111.0399 249.0922 15.33481966 18045
STARLINK-36596          
1 67670U 26022Y   26150.05212142  .00016182  00000+0  50236-3 0  9995
2 67670  97.2834 183.2686 0001736  91.3489 268.7953 15.33452175 18045
STARLINK-36297          
1 67671U 26022Z   26150.03580906  .00026848  00000+0  83055-3 0  9995
2 67671  97.2817 183.2907 0002212  94.4921 265.6574 15.33460018 18048
STARLINK-36616          
1 67672U 26022AA  26150.04398873  .00026736  00000+0  82737-3 0  9999
2 67672  97.2841 183.2813 0001413  97.3823 262.7581 15.33451330 18040
COSMOS 2600             
1 67674U 26023A   26149.95624727  .00058255  00000+0  27341-3 0  9991
2 67674  96.6647 222.9552 0009890 174.5897 185.5483 15.82957433 17902
